0 POPACS DEB (SPACER)
1 39290U 13055Y   13288.38894029  .00045341  00000-0  15280-2 0   134
2 39290 080.9972 299.6202 0788251 114.5727 253.9696 13.98741337  1139
0 POPACS DEB (SPACER)
1 39290U 13055Y   13289.24733098  .00049417  00000-0  16686-2 0   148
2 39290 080.9966 298.7666 0787558 112.1566 256.6180 13.98843070  1258
0 POPACS DEB (SPACER)
1 39290U 13055Y   13289.46189496  .00054564  00000-0  18285-2 0   156
2 39290 080.9977 298.5527 0788137 111.6483 257.0977 13.98882405  1287
0 POPACS DEB (SPACER)
1 39290U 13055Y   13290.53474010  .00055923  00000-0  18735-2 0   166
2 39290 080.9975 297.4888 0787574 108.6513 260.1780 13.99006226  1431
0 POPACS DEB (SPACER)
1 39290U 13055Y   13291.17840762  .00055578  00000-0  18720-2 0   179
2 39290 080.9977 296.8508 0786698 106.8267 262.0420 13.99074528  1529
0 POPACS DEB (SPACER)
1 39290U 13055Y   13292.17961142  .00053505  00000-0  17952-2 0   181
2 39290 080.9957 295.8525 0786640 104.0549 264.8878 13.99172230  1666
0 POPACS DEB (SPACER)
1 39290U 13055Y   13292.60868143  .00051316  00000-0  17255-2 0   191
2 39290 080.9953 295.4259 0786251 102.8423 266.1395 13.99207954  1725
0 POPACS DEB (SPACER)
1 39290U 13055Y   13293.68128907  .00050628  00000-0  17039-2 0   204
2 39290 080.9944 294.3588 0785661 099.8505 269.2120 13.99313379  1873
0 POPACS DEB (SPACER)
1 39290U 13055Y   13295.25428764  .00049536  00000-0  16682-2 0   213
2 39290 080.9944 292.7924 0784887 095.4685 273.6366 13.99464834  2098
